{"type": "FeatureCollection", "features": [ {"type": "Feature", "properties": {"norad_id": 46271, "name": "COSMOS 2251 DEB", "group": "cosmos-2251-debris", "lat": 13.852895670597224, "lon": -97.76394591085436, "alt_km": 700.5173845907639, "timestamp": "2025-12-08T10:52:03.346876+00:00", "meta": {"OBJECT_NAME": "COSMOS 2251 DEB", "OBJECT_ID": "1993-036BWT", "EPOCH": "2025-12-02T01:54:44.684640", "MEAN_MOTION": 14.51374966, "ECCENTRICITY": 0.00407046, "INCLINATION": 74.046, "RA_OF_ASC_NODE": 98.2636, "ARG_OF_PERICENTER": 221.9387, "MEAN_ANOMALY": 137.8656, "EPHEMERIS_TYPE": 0, "CLASSIFICATION_TYPE": "U", "NORAD_CAT_ID": 46271, "ELEMENT_SET_NO": 999, "REV_AT_EPOCH": 84487, "BSTAR": 0.0004698569, "MEAN_MOTION_DOT": 1.865e-05, "MEAN_MOTION_DDOT": 0}, "tle": {"line1": "1 46271U 93036BWT 25336.07968385  .00001865  00000+0  46986-3 0  9991", "line2": "2 46271  74.0460  98.2636 0040704 221.9387 137.8656 14.51374966844877"}}, "geometry": {"type": "Point", "coordinates": [-97.76394591085436, 13.852895670597224]}}, {"type": "Feature", "properties": {"norad_id": 46430, "name": "COSMOS 2251 DEB", "group": "cosmos-2251-debris", "lat": -49.507135516389276, "lon": -155.76587527961732, "alt_km": 683.8300197729432, "timestamp": "2025-12-08T10:52:03.346886+00:00", "meta": {"OBJECT_NAME": "COSMOS 2251 DEB", "OBJECT_ID": "1993-036BWU", "EPOCH": "2025-12-03T09:00:26.936928", "MEAN_MOTION": 14.51043928, "ECCENTRICITY": 0.01031866, "INCLINATION": 73.9151, "RA_OF_ASC_NODE": 14.104, "ARG_OF_PERICENTER": 295.9829, "MEAN_ANOMALY": 63.073, "EPHEMERIS_TYPE": 0, "CLASSIFICATION_TYPE": "U", "NORAD_CAT_ID": 46430, "ELEMENT_SET_NO": 999, "REV_AT_EPOCH": 79547, "BSTAR": 0.0030362826, "MEAN_MOTION_DOT": 0.00012872, "MEAN_MOTION_DDOT": 0}, "tle": {"line1": "1 46430U 93036BWU 25337.37531177  .00012872  00000+0  30363-2 0  9998", "line2": "2 46430  73.9151  14.1040 0103186 295.9829  63.0730 14.51043928795476"}}, "geometry": {"type": "Point", "coordinates": [-155.76587527961732, -49.507135516389276]}}, {"type": "Feature", "properties": {"norad_id": 46432, "name": "COSMOS 2251 DEB", "group": "cosmos-2251-debris", "lat": -25.83704178930104, "lon": 109.9954502608376, "alt_km": 1153.0408800116065, "timestamp": "2025-12-08T10:52:03.346897+00:00", "meta": {"OBJECT_NAME": "COSMOS 2251 DEB", "OBJECT_ID": "1993-036BWW", "EPOCH": "2025-12-06T16:01:31.706976", "MEAN_MOTION": 13.3661688, "ECCENTRICITY": 0.04737874, "INCLINATION": 73.8715, "RA_OF_ASC_NODE": 120.8611, "ARG_OF_PERICENTER": 239.3402, "MEAN_ANOMALY": 141.9377, "EPHEMERIS_TYPE": 0, "CLASSIFICATION_TYPE": "U", "NORAD_CAT_ID": 46432, "ELEMENT_SET_NO": 999, "REV_AT_EPOCH": 66885, "BSTAR": 0.0019683261, "MEAN_MOTION_DOT": 1.915e-05, "MEAN_MOTION_DDOT": 0}, "tle": {"line1": "1 46432U 93036BWW 25340.66772809  .00001915  00000+0  19683-2 0  9993", "line2": "2 46432  73.8715 120.8611 0473787 239.3402 141.9377 13.36616880668857"}}, "geometry": {"type": "Point", "coordinates": [109.9954502608376, -25.83704178930104]}}, {"type": "Feature", "properties": {"norad_id": 47045, "name": "COSMOS 2251 DEB", "group": "cosmos-2251-debris", "lat": -51.47634797919492, "lon": -1.8951208362169227, "alt_km": 759.2867076752109, "timestamp": "2025-12-08T10:52:03.346907+00:00", "meta": {"OBJECT_NAME": "COSMOS 2251 DEB", "OBJECT_ID": "1993-036BWZ", "EPOCH": "2025-12-07T06:15:15.521184", "MEAN_MOTION": 14.38895318, "ECCENTRICITY": 0.00302399, "INCLINATION": 74.0571, "RA_OF_ASC_NODE": 159.2576, "ARG_OF_PERICENTER": 301.093, "MEAN_ANOMALY": 240.3675, "EPHEMERIS_TYPE": 0, "CLASSIFICATION_TYPE": "U", "NORAD_CAT_ID": 47045, "ELEMENT_SET_NO": 999, "REV_AT_EPOCH": 7726, "BSTAR": 0.00014314091, "MEAN_MOTION_DOT": 4.17e-06, "MEAN_MOTION_DDOT": 0}, "tle": {"line1": "1 47045U 93036BWZ 25341.26059631  .00000417  00000+0  14314-3 0  9995", "line2": "2 47045  74.0571 159.2576 0030239 301.0930 240.3675 14.38895318 77263"}}, "geometry": {"type": "Point", "coordinates": [-1.8951208362169227, -51.47634797919492]}}, {"type": "Feature", "properties": {"norad_id": 47048, "name": "COSMOS 2251 DEB", "group": "cosmos-2251-debris", "lat": -42.74720048457971, "lon": -48.1038490842374, "alt_km": 812.5763131829053, "timestamp": "2025-12-08T10:52:03.346918+00:00", "meta": {"OBJECT_NAME": "COSMOS 2251 DEB", "OBJECT_ID": "1993-036BXC", "EPOCH": "2025-12-07T07:15:38.269728", "MEAN_MOTION": 14.52229932, "ECCENTRICITY": 0.0133232, "INCLINATION": 73.9782, "RA_OF_ASC_NODE": 329.4737, "ARG_OF_PERICENTER": 158.8085, "MEAN_ANOMALY": 264.4528, "EPHEMERIS_TYPE": 0, "CLASSIFICATION_TYPE": "U", "NORAD_CAT_ID": 47048, "ELEMENT_SET_NO": 999, "REV_AT_EPOCH": 59611, "BSTAR": 0.0016547605, "MEAN_MOTION_DOT": 7.524e-05, "MEAN_MOTION_DDOT": 0}, "tle": {"line1": "1 47048U 93036BXC 25341.30252627  .00007524  00000+0  16548-2 0  9999", "line2": "2 47048  73.9782 329.4737 0133232 158.8085 264.4528 14.52229932596117"}}, "geometry": {"type": "Point", "coordinates": [-48.1038490842374, -42.74720048457971]}}, {"type": "Feature", "properties": {"norad_id": 47051, "name": "COSMOS 2251 DEB", "group": "cosmos-2251-debris", "lat": 28.865929483557853, "lon": 1.5573177281084727, "alt_km": 1235.5014466326857, "timestamp": "2025-12-08T10:52:03.346929+00:00", "meta": {"OBJECT_NAME": "COSMOS 2251 DEB", "OBJECT_ID": "1993-036BXF", "EPOCH": "2025-12-07T08:40:13.029888", "MEAN_MOTION": 13.67092269, "ECCENTRICITY": 0.03407698, "INCLINATION": 74.1016, "RA_OF_ASC_NODE": 192.3794, "ARG_OF_PERICENTER": 307.1463, "MEAN_ANOMALY": 234.2047, "EPHEMERIS_TYPE": 0, "CLASSIFICATION_TYPE": "U", "NORAD_CAT_ID": 47051, "ELEMENT_SET_NO": 999, "REV_AT_EPOCH": 59864, "BSTAR": 0.0022022876, "MEAN_MOTION_DOT": 2.731e-05, "MEAN_MOTION_DDOT": 0}, "tle": {"line1": "1 47051U 93036BXF 25341.36126192  .00002731  00000+0  22023-2 0  9996", "line2": "2 47051  74.1016 192.3794 0340769 307.1463 234.2047 13.67092269598645"}}, "geometry": {"type": "Point", "coordinates": [1.5573177281084727, 28.865929483557853]}}, {"type": "Feature", "properties": {"norad_id": 47052, "name": "COSMOS 2251 DEB", "group": "cosmos-2251-debris", "lat": -55.941384306109335, "lon": -166.78377229594204, "alt_km": 821.4157339662752, "timestamp": "2025-12-08T10:52:03.346962+00:00", "meta": {"OBJECT_NAME": "COSMOS 2251 DEB", "OBJECT_ID": "1993-036BXG", "EPOCH": "2025-12-05T19:01:13.155168", "MEAN_MOTION": 14.35464627, "ECCENTRICITY": 0.00577854, "INCLINATION": 74.049, "RA_OF_ASC_NODE": 353.0607, "ARG_OF_PERICENTER": 69.2726, "MEAN_ANOMALY": 108.045, "EPHEMERIS_TYPE": 0, "CLASSIFICATION_TYPE": "U", "NORAD_CAT_ID": 47052, "ELEMENT_SET_NO": 999, "REV_AT_EPOCH": 61689, "BSTAR": 0.00041416194, "MEAN_MOTION_DOT": 1.188e-05, "MEAN_MOTION_DDOT": 0}, "tle": {"line1": "1 47052U 93036BXG 25339.79251337  .00001188  00000+0  41416-3 0  9994", "line2": "2 47052  74.0490 353.0607 0057785  69.2726 108.0450 14.35464627616892"}}, "geometry": {"type": "Point", "coordinates": [-166.78377229594204, -55.941384306109335]}}, {"type": "Feature", "properties": {"norad_id": 47053, "name": "COSMOS 2251 DEB", "group": "cosmos-2251-debris", "lat": 70.11257533515564, "lon": 28.81260235801544, "alt_km": 778.32124974615, "timestamp": "2025-12-08T10:52:03.346973+00:00", "meta": {"OBJECT_NAME": "COSMOS 2251 DEB", "OBJECT_ID": "1993-036BXH", "EPOCH": "2025-12-02T02:37:04.787616", "MEAN_MOTION": 13.59615746, "ECCENTRICITY": 0.03758539, "INCLINATION": 74.0601, "RA_OF_ASC_NODE": 271.2609, "ARG_OF_PERICENTER": 87.2254, "MEAN_ANOMALY": 294.2026, "EPHEMERIS_TYPE": 0, "CLASSIFICATION_TYPE": "U", "NORAD_CAT_ID": 47053, "ELEMENT_SET_NO": 999, "REV_AT_EPOCH": 28744, "BSTAR": 0.0013831144, "MEAN_MOTION_DOT": 1.616e-05, "MEAN_MOTION_DDOT": 0}, "tle": {"line1": "1 47053U 93036BXH 25336.10908319  .00001616  00000+0  13831-2 0  9991", "line2": "2 47053  74.0601 271.2609 0375853  87.2254 294.2026 13.59615746287442"}}, "geometry": {"type": "Point", "coordinates": [28.81260235801544, 70.11257533515564]}}, {"type": "Feature", "properties": {"norad_id": 47059, "name": "COSMOS 2251 DEB", "group": "cosmos-2251-debris", "lat": 57.51455702097239, "lon": 37.51672272370001, "alt_km": 519.9424585205161, "timestamp": "2025-12-08T10:52:03.346984+00:00", "meta": {"OBJECT_NAME": "COSMOS 2251 DEB", "OBJECT_ID": "1993-036BXP", "EPOCH": "2025-12-06T03:03:53.254944", "MEAN_MOTION": 15.11824975, "ECCENTRICITY": 0.0012241, "INCLINATION": 73.9837, "RA_OF_ASC_NODE": 249.1614, "ARG_OF_PERICENTER": 60.0281, "MEAN_ANOMALY": 7.7142, "EPHEMERIS_TYPE": 0, "CLASSIFICATION_TYPE": "U", "NORAD_CAT_ID": 47059, "ELEMENT_SET_NO": 999, "REV_AT_EPOCH": 8205, "BSTAR": 0.0045995756, "MEAN_MOTION_DOT": 0.00079589, "MEAN_MOTION_DDOT": 0}, "tle": {"line1": "1 47059U 93036BXP 25340.12769971  .00079589  00000+0  45996-2 0  9994", "line2": "2 47059  73.9837 249.1614 0012241  60.0281   7.7142 15.11824975 82057"}}, "geometry": {"type": "Point", "coordinates": [37.51672272370001, 57.51455702097239]}}, {"type": "Feature", "properties": {"norad_id": 47062, "name": "COSMOS 2251 DEB", "group": "cosmos-2251-debris", "lat": 18.122203909944716, "lon": -100.11173999981091, "alt_km": 837.506294482746, "timestamp": "2025-12-08T10:52:03.346994+00:00", "meta": {"OBJECT_NAME": "COSMOS 2251 DEB", "OBJECT_ID": "1993-036BXS", "EPOCH": "2025-12-07T13:07:54.059808", "MEAN_MOTION": 13.71915602, "ECCENTRICITY": 0.03234523, "INCLINATION": 74.0847, "RA_OF_ASC_NODE": 86.7391, "ARG_OF_PERICENTER": 213.5714, "MEAN_ANOMALY": 158.9974, "EPHEMERIS_TYPE": 0, "CLASSIFICATION_TYPE": "U", "NORAD_CAT_ID": 47062, "ELEMENT_SET_NO": 999, "REV_AT_EPOCH": 55531, "BSTAR": 0.0031720462, "MEAN_MOTION_DOT": 4.156e-05, "MEAN_MOTION_DDOT": 0}, "tle": {"line1": "1 47062U 93036BXS 25341.54715347  .00004156  00000+0  31720-2 0  9991", "line2": "2 47062  74.0847  86.7391 0323452 213.5714 158.9974 13.71915602555314"}}, "geometry": {"type": "Point", "coordinates": [-100.11173999981091, 18.122203909944716]}}]}